[{"OBJECT_NAME":"MARAFON-D GVM","OBJECT_ID":"2024-039V","EPOCH":"2026-03-09T22:15:16.896096","MEAN_MOTION":14.45961623,"ECCENTRICITY":0.00149761,"INCLINATION":88.9816,"RA_OF_ASC_NODE":295.8376,"ARG_OF_PERICENTER":319.0552,"MEAN_ANOMALY":40.9527,"EPHEMERIS_TYPE":0,"CLASSIFICATION_TYPE":"U","NORAD_CAT_ID":59072,"ELEMENT_SET_NO":999,"REV_AT_EPOCH":10684,"BSTAR":8.0103078e-5,"MEAN_MOTION_DOT":3.0e-6,"MEAN_MOTION_DDOT":0},{"OBJECT_NAME":"SL-8 R\/B","OBJECT_ID":"1973-098B","EPOCH":"2026-03-09T10:40:03.671616","MEAN_MOTION":14.44823389,"ECCENTRICITY":0.00217611,"INCLINATION":74.0535,"RA_OF_ASC_NODE":66.7993,"ARG_OF_PERICENTER":315.0501,"MEAN_ANOMALY":44.8894,"EPHEMERIS_TYPE":0,"CLASSIFICATION_TYPE":"U","NORAD_CAT_ID":6966,"ELEMENT_SET_NO":999,"REV_AT_EPOCH":74505,"BSTAR":0.00012894968,"MEAN_MOTION_DOT":4.23e-6,"MEAN_MOTION_DDOT":0}]
